COSMOS 1933             
1 18958U 88020A   22166.98016397  .00001487  00000+0  10377-3 0  9999
2 18958  82.5279 141.8061 0011219 180.7136 179.4077 15.04625930844586
SL-3 R/B                
1 19046U 88032B   22166.99144093  .00001589  00000+0  11869-3 0  9997
2 19046  97.3929 166.0076 0034575 242.5300 117.2409 15.03740531846390
SL-16 R/B               
1 19120U 88039B   22166.97236096  .00000166  00000+0  10186-3 0  9991
2 19120  71.0156  69.0921 0024197 269.9847  89.8505 14.19247762765017
COSMOS 1953             
1 19210U 88050A   22166.81394601  .00002486  00000+0  16233-3 0  9990
2 19210  82.5181  62.3908 0014660 145.8666 214.3508 15.07340152831318
SL-8 R/B                
1 19257U 88053B   22167.05922307  .00000160  00000+0  62066-4 0  9994
2 19257  74.0485 101.1538 0021597 259.8828 111.1580 14.37604492780708
COSMOS 1975             
1 19573U 88093A   22166.98801914  .00002803  00000+0  18901-3 0  9994
2 19573  82.5185  18.0773 0012637 191.0769 169.0182 15.06227282813064
SL-14 R/B               
1 19574U 88093B   22166.45901545  .00000323  00000+0  36288-4 0  9992
2 19574  82.5327 239.2250 0020600 217.9379 152.6864 14.83505185819880
SL-16 R/B               
1 19650U 88102B   22166.97965860 -.00000151  00000+0 -52314-4 0  9994
2 19650  70.9980 137.9373 0016517 283.2448  76.6832 14.15830897733999
INTERCOSMOS 24          
1 20261U 89080A   22167.01106233  .00001007  00000+0  29988-3 0  9996
2 20261  82.6023 268.6672 1201214 206.4194 147.0555 12.56378229495479
SL-14 R/B               
1 20262U 89080C   22166.98349726  .00000261  00000+0  70379-4 0  9990
2 20262  82.5929 327.2432 1236971  55.9649 315.2769 12.49077693489933
DELTA 2 R/B(1)          
1 20303U 89085B   22167.00671935  .00014606  00000+0  37349-3 0  9992
2 20303  35.6388  97.1388 0080311 200.2272 159.5268 15.35306888780230
DELTA 1 R/B             
1 20323U 89089B   22167.04409452  .00000311  00000+0  88955-4 0  9993
2 20323  97.0800 208.9713 0073198  98.7986 262.1509 14.48524398698333
ARIANE 40 R/B           
1 20443U 90005H   22166.95740332  .00000223  00000+0  87675-4 0  9990
2 20443  98.4835 234.7460 0009734 336.5110  23.5631 14.38234227696827
DELTA 2 R/B(1)          
1 20453U 90008B   22166.75416568  .00006656  00000+0  34489-3 0  9993
2 20453  35.6254 273.3361 0266334 276.5189  80.5272 14.89848592719658
COSMOS 2058             
1 20465U 90010A   22166.80771146  .00001569  00000+0  12750-3 0  9996
2 20465  82.4884 292.1753 0013711 264.0174  95.9487 14.98889554737380
SL-14 R/B               
1 20466U 90010B   22167.07058421  .00000381  00000+0  45320-4 0  9992
2 20466  82.5031 104.8516 0022016 102.7195 257.6481 14.81547189726602
SL-14 R/B               
1 20511U 90018B   22166.96405244  .00000310  00000+0  37774-4 0  9993
2 20511  82.5239  54.5903 0015932 246.6564 123.8066 14.80201075720877
HST                     
1 20580U 90037B   22166.72259426  .00001958  00000+0  10487-3 0  9993
2 20580  28.4685 180.2715 0002576  22.0506 128.8465 15.10573416565956
SL-16 R/B               
1 20625U 90046B   22167.01935419 -.00000243  00000+0 -10125-3 0  9996
2 20625  70.9992 278.9318 0015761 222.2276 137.7634 14.14694052655658
COSMOS 2084             
1 20663U 90055A   22166.96814463  .00001152  00000+0  11463-3 0  9990
2 20663  62.7924 254.6870 0117171  49.7539 311.3732 14.92874766732079
SL-6 R/B(2)             
1 20666U 90055D   22166.96131114  .00001669  00000+0  15245-3 0  9993
2 20666  62.7821 169.2310 0129555  72.3085 289.2104 14.93192231734030
SL-8 R/B                
1 20775U 90078B   22166.99731032  .00012208  00000+0  56493-3 0  9998
2 20775  82.9239 344.1102 0552925  91.4795 274.9776 14.39926207610310
SL-8 R/B                
1 21088U 91006B   22166.95966042  .00000041  00000+0  25686-4 0  9998
2 21088  82.9423 103.5768 0021141 250.7136 183.3048 13.77196755576480
OKEAN-3                 
1 21397U 91039A   22167.02293457  .00001342  00000+0  12425-3 0  9990
2 21397  82.5215 203.9082 0015986 248.0021 111.9501 14.93698990660960
COSMOS 2151             
1 21422U 91042A   22166.91731883  .00001163  00000+0  11032-3 0  9994
2 21422  82.4997 309.2185 0013059 323.8759  36.1577 14.92674726659451
SL-14 R/B               
1 21423U 91042B   22166.96278963  .00000326  00000+0  40052-4 0  9990
2 21423  82.4949  55.9798 0018504  36.5568 323.6904 14.79946402651403
ERS-1                   
1 21574U 91050A   22166.88772735  .00000136  00000+0  60011-4 0  9999
2 21574  98.6975 135.6975 0031719 283.6512  76.1143 14.37907341619792
ARIANE 40 R/B           
1 21610U 91050F   22166.94333159  .00000258  00000+0  93655-4 0  9995
2 21610  98.3811 236.4824 0002471 209.4256 150.6795 14.41068516622619
INTERCOSMOS 25          
1 21819U 91086A   22166.96543616  .00001590  00000+0  31624-3 0  9995
2 21819  82.5865  49.5476 1513965 159.0879 207.9616 12.05757504332051
SL-8 R/B                
1 21876U 92008B   22166.88758779  .00000136  00000+0  12502-3 0  9991
2 21876  82.9268 200.9857 0034242 342.7091 190.3568 13.75703535522025
SL-8 R/B                
1 21938U 92020B   22167.07271874  .00000084  00000+0  71760-4 0  9996
2 21938  82.9308  85.6226 0030042 138.3776 232.6328 13.75304439513822
COSMOS 2219             
1 22219U 92076A   22166.89774709  .00000286  00000+0  17572-3 0  9998
2 22219  71.0592 345.9549 0017073 125.9430 234.3279 14.13689516525751
SL-16 R/B               
1 22220U 92076B   22166.99871394  .00000275  00000+0  16190-3 0  9992
2 22220  70.9986 177.9232 0012593   2.2892  18.5234 14.16499086528841
COSMOS 2221             
1 22236U 92080A   22166.98726510  .00001223  00000+0  12868-3 0  9994
2 22236  82.5069 135.0875 0018167  65.3582 294.9525 14.88483241577613
SL-16 R/B               
1 22285U 92093B   22166.82609489  .00000139  00000+0  96230-4 0  9991
2 22285  71.0209 344.4140 0005921 237.9250 122.1298 14.15085260520335
COSMOS 2228             
1 22286U 92094A   22167.03094522  .00001217  00000+0  12717-3 0  9998
2 22286  82.5204  92.1499 0020792 175.7356 184.4044 14.88741817572818
SL-16 R/B               
1 22566U 93016B   22167.03697718  .00000209  00000+0  13254-3 0  9997
2 22566  71.0068 196.3594 0012243 242.9251 117.0623 14.15007096509398
COSMOS 2242             
1 22626U 93024A   22166.94866384  .00001241  00000+0  13034-3 0  9992
2 22626  82.5210 120.6670 0018687 175.8430 184.2947 14.88567510577186
SL-16 R/B               
1 22803U 93059B   22167.00182858  .00000203  00000+0  12478-3 0  9990
2 22803  70.9906   3.8701 0015567 131.2052 229.0417 14.16865955486491
ARIANE 40 R/B           
1 22830U 93061H   22166.14337968  .00000137  00000+0  68053-4 0  9998
2 22830  98.6636 228.9493 0010584 352.9453   7.1580 14.31558583498938
COSMOS 2278             
1 23087U 94023A   22166.98388549  .00000211  00000+0  13603-3 0  9998
2 23087  71.0512 144.8412 0010269 301.7688  58.2433 14.13863450452161
SL-16 R/B               
1 23088U 94023B   22166.97522980 -.00000154  00000+0 -55224-4 0  9991
2 23088  71.0014  51.9738 0004895 234.7833 125.2831 14.14716141453346
SL-16 R/B               
1 23343U 94074B   22167.03428876  .00000376  00000+0  60500-4 0  9995
2 23343  97.8929 219.9989 0006020 331.9996  89.5213 14.77038414485954
SL-16 R/B               
1 23405U 94077B   22166.91902199 -.00000118  00000+0 -36172-4 0  9992
2 23405  70.9835 338.7240 0000823  13.9082 346.2063 14.15263019423400
ERS-2                   
1 23560U 95021A   22166.99574517  .00007870  00000+0  30274-3 0  9997
2 23560  98.5057  72.1913 0002898 172.2540 187.8741 15.26733497453097
ARIANE 40+ R/B          
1 23561U 95021B   22167.01681650  .00000259  00000+0  10033-3 0  9994
2 23561  98.6231 224.3197 0005840 245.9728 176.3413 14.38152327423280
SL-16 R/B               
1 23705U 95058B   22166.99597157 -.00000143  00000+0 -49238-4 0  9992
2 23705  71.0212 160.3448 0011388  26.5301 333.6402 14.15178415375043
SL-16 R/B               
1 24298U 96051B   22166.96829379  .00000007  00000+0  30174-4 0  9991
2 24298  70.8174 173.9451 0015415 339.3546  20.6949 14.12412621329225
ORBVIEW 2 (SEASTAR)     
1 24883U 97037A   22166.90173437  .00000253  00000+0  10734-3 0  9999
2 24883  98.6804 290.2635 0003443 109.3014 250.8542 14.33743707313081
SL-16 R/B               
1 25400U 98043G   22166.53149174  .00000043  00000+0  36886-4 0  9997
2 25400  98.6731 102.6739 0010339  21.0574 339.1029 14.25516477244740
SL-16 R/B               
1 25407U 98045B   22167.03037581  .00000265  00000+0  15895-3 0  9992
2 25407  71.0096 166.3504 0009396 295.5229  64.4922 14.15863744234200
ISS (ZARYA)             
1 25544U 98067A   22166.98291539  .00007389  00000+0  13721-3 0  9996
2 25544  51.6447 342.5501 0004194 242.9750 255.0959 15.50021518344998
CZ-4B R/B               
1 25732U 99025C   22167.03237435  .00000025  00000+0  34074-4 0  9997
2 25732  98.8540 208.3849 0036286 292.2307 126.5167 14.17731532195051
OKEAN-O                 
1 25860U 99039A   22167.03263795  .00000511  00000+0  80160-4 0  9999
2 25860  98.1387 206.8841 0001881  82.2418 277.9005 14.76952146233048
SL-16 R/B               
1 25861U 99039B   22166.98806030  .00000446  00000+0  67997-4 0  9998
2 25861  98.1785 193.9640 0015085 342.6479  17.4214 14.78831645235284
DELTA 2 R/B             
1 25876U 99041E   22166.68190784  .00000250  00000+0  81855-4 0  9998
2 25876  51.7676 314.6441 0529120 308.6684  46.8015 14.05038464170972
HELIOS 1B               
1 25977U 99064A   22166.98681644  .00000533  00000+0  73032-4 0  9990
2 25977  98.3218   1.1399 0002098 121.6106 238.5311 14.82789433483065
TERRA                   
1 25994U 99068A   22167.04400674  .00000352  00000+0  87993-4 0  9993
2 25994  98.1368 238.9967 0001255  94.5041  26.2854 14.57141727196299
SL-16 R/B               
1 26070U 00006B   22167.04584420 -.00000251  00000+0 -10414-3 0  9998
2 26070  71.0029  82.1753 0014316  96.6866 263.5887 14.15489764155715
